NORAD_CAT_ID,OBJECT_NAME,OBJECT_TYPE,EPOCH,MEAN_MOTION,ECCENTRICITY,INCLINATION,RA_OF_ASC_NODE,ARG_OF_PERICENTER,MEAN_ANOMALY,BSTAR,MEAN_MOTION_DOT,MEAN_MOTION_DDOT,TLE_LINE0,TLE_LINE1,TLE_LINE2,SEMIMAJOR_AXIS,PERIOD,APOGEE,PERIGEE,DECAYED
54170.0,STARLINK-5155,PAYLOAD,2023-09-10 01:44:12,15.08840827,0.0001291,53.2162,136.5782,91.8496,268.2644,4.3614e-05,4.06e-06,0.0,0 STARLINK-5155,1 54170U 22141P   23253.07237000  .00000406  00000-0  43614-4 0  9993,2 54170  53.2162 136.5782 0001291  91.8496 268.2644 15.08840827 48221,6917.878,95.438,540.636,538.85,0.0
54170.0,STARLINK-5155,PAYLOAD,2023-09-11 01:34:58,15.08853086,0.0001315,53.2162,132.1184,89.6552,270.4591,0.00015669,2.208e-05,0.0,0 STARLINK-5155,1 54170U 22141P   23254.06595814  .00002208  00000-0  15669-3 0  9993,2 54170  53.2162 132.1184 0001315  89.6552 270.4591 15.08853086 48377,6917.84,95.437,540.615,538.796,0.0
54170.0,STARLINK-5155,PAYLOAD,2023-09-11 09:31:54,15.08847576,0.0001174,53.2165,130.6315,86.4354,273.6772,7.8097e-05,9.56e-06,0.0,0 STARLINK-5155,1 54170U 22141P   23254.39716183  .00000956  00000-0  78097-4 0  9996,2 54170  53.2165 130.6315 0001174  86.4354 273.6772 15.08847576 48426,6917.857,95.437,540.534,538.91,0.0
54170.0,STARLINK-5155,PAYLOAD,2023-09-12 01:25:46,15.08841959,0.0001444,53.2164,127.6574,89.3975,270.7183,4.7408e-05,4.67e-06,0.0,0 STARLINK-5155,1 54170U 22141P   23255.05956773  .00000467  00000-0  47408-4 0  9990,2 54170  53.2164 127.6574 0001444  89.3975 270.7183 15.08841959 48523,6917.874,95.437,540.738,538.74,0.0
54170.0,STARLINK-5155,PAYLOAD,2023-09-12 20:30:24,15.08840031,0.000152,53.2176,124.0878,96.6831,263.4334,2.4058e-05,9.5e-07,0.0,0 STARLINK-5155,1 54170U 22141P   23255.85444809  .00000095  00000-0  24058-4 0  9993,2 54170  53.2176 124.0878 0001520  96.6831 263.4334 15.08840031 48652,6917.88,95.438,540.797,538.694,0.0
54170.0,STARLINK-5155,PAYLOAD,2023-09-12 23:41:10,15.08852089,0.0001396,53.2174,123.4943,89.5746,270.5406,4.3836e-06,-2.18e-06,0.0,0 STARLINK-5155,1 54170U 22141P   23255.98692138 -.00000218  00000-0  43836-5 0  9991,2 54170  53.2174 123.4943 0001396  89.5746 270.5406 15.08852089 48669,6917.843,95.437,540.674,538.743,0.0
54170.0,STARLINK-5155,PAYLOAD,2023-09-13 18:45:47,15.08845234,0.0001412,53.2171,119.9251,89.9709,270.1445,0.00011285,1.509e-05,0.0,0 STARLINK-5155,1 54170U 22141P   23256.78180077  .00001509  00000-0  11285-3 0  9998,2 54170  53.2171 119.9251 0001412  89.9709 270.1445 15.08845234 48786,6917.864,95.437,540.706,538.753,0.0
54170.0,STARLINK-5155,PAYLOAD,2023-09-13 21:56:33,15.088504,0.0001432,53.2171,119.3311,86.2277,273.8879,0.00014474,2.017e-05,0.0,0 STARLINK-5155,1 54170U 22141P   23256.91427724  .00002017  00000-0  14474-3 0  9994,2 54170  53.2171 119.3311 0001432  86.2277 273.8879 15.08850400 48815,6917.849,95.437,540.704,538.723,0.0
54170.0,STARLINK-5155,PAYLOAD,2023-09-13 23:31:56,15.08852611,0.0001413,53.2171,119.0346,85.5945,274.5209,0.00015447,2.172e-05,0.0,0 STARLINK-5155,1 54170U 22141P   23256.98051579  .00002172  00000-0  15447-3 0  9995,2 54170  53.2171 119.0346 0001413  85.5945 274.5209 15.08852611 48814,6917.842,95.437,540.684,538.729,0.0
54170.0,STARLINK-5155,PAYLOAD,2023-09-14 13:50:25,15.08833871,0.0001846,53.2168,116.3581,85.7931,274.3272,-5.2259e-06,-3.71e-06,0.0,0 STARLINK-5155,1 54170U 22141P   23257.57668944 -.00000371  00000-0 -52259-5 0  9996,2 54170  53.2168 116.3581 0001846  85.7931 274.3272 15.08833871 48914,6917.899,95.438,541.041,538.487,0.0
54170.0,STARLINK-5155,PAYLOAD,2023-09-14 18:36:35,15.08826718,0.0001347,53.2165,115.467,73.9881,286.1259,-0.00018732,-3.267e-05,0.0,0 STARLINK-5155,1 54170U 22141P   23257.77541370 -.00003267  00000-0 -18732-3 0  9994,2 54170  53.2165 115.4670 0001347  73.9881 286.1259 15.08826718 48939,6917.921,95.438,540.718,538.854,0.0
54170.0,STARLINK-5155,PAYLOAD,2023-09-14 21:47:21,15.08828033,0.0001306,53.2163,114.8712,74.7816,285.3321,-0.00017379,-3.052e-05,0.0,0 STARLINK-5155,1 54170U 22141P   23257.90789337 -.00003052  00000-0 -17379-3 0  9994,2 54170  53.2163 114.8712 0001306  74.7816 285.3321 15.08828033 48965,6917.917,95.438,540.685,538.878,0.0
54170.0,STARLINK-5155,PAYLOAD,2023-09-15 13:41:14,15.08830725,0.0001305,53.2176,111.8986,90.4481,269.666,-0.00010689,-1.988e-05,0.0,0 STARLINK-5155,1 54170U 22141P   23258.57030554 -.00001988  00000-0 -10689-3 0  9991,2 54170  53.2176 111.8986 0001305  90.4481 269.6660 15.08830725 49065,6917.909,95.438,540.677,538.871,0.0
54170.0,STARLINK-5155,PAYLOAD,2023-09-15 18:27:22,15.08842752,0.0001287,53.2175,111.0058,89.0476,271.0663,3.563e-06,-2.31e-06,0.0,0 STARLINK-5155,1 54170U 22141P   23258.76901310 -.00000231  00000-0  35630-5 0  9993,2 54170  53.2175 111.0058 0001287  89.0476 271.0663 15.08842752 49088,6917.872,95.437,540.627,538.847,0.0
54170.0,STARLINK-5155,PAYLOAD,2023-09-15 23:13:31,15.08846048,0.0001336,53.2163,110.1144,88.8801,271.2345,0.00012082,1.636e-05,0.0,0 STARLINK-5155,1 54170U 22141P   23258.96772888  .00001636  00000-0  12082-3 0  9994,2 54170  53.2163 110.1144 0001336  88.8801 271.2345 15.08846048 49121,6917.862,95.437,540.651,538.803,0.0
54170.0,STARLINK-5155,PAYLOAD,2023-09-16 18:18:10,15.0883645,0.0001383,53.2163,106.546,84.9156,275.1994,0.00025359,3.75e-05,0.0,0 STARLINK-5155,1 54170U 22141P   23259.76261796  .00003750  00000-0  25359-3 0  9994,2 54170  53.2163 106.5460 0001383  84.9156 275.1994 15.08836450 49234,6917.891,95.438,540.713,538.799,0.0
54170.0,STARLINK-5155,PAYLOAD,2023-09-17 00:39:42,15.08843629,0.000132,53.2156,105.3571,81.1457,278.9685,0.00033686,5.078e-05,0.0,0 STARLINK-5155,1 54170U 22141P   23260.02757591  .00005078  00000-0  33686-3 0  9995,2 54170  53.2156 105.3571 0001320  81.1457 278.9685 15.08843629 49289,6917.869,95.437,540.647,538.821,0.0
54170.0,STARLINK-5155,PAYLOAD,2023-09-17 19:44:20,15.08844802,0.0001394,53.2152,101.7889,80.3927,279.7223,0.00015518,2.183e-05,0.0,0 STARLINK-5155,1 54170U 22141P   23260.82245545  .00002183  00000-0  15518-3 0  9992,2 54170  53.2152 101.7889 0001394  80.3927 279.7223 15.08844802 49394,6917.866,95.437,540.695,538.766,0.0
54170.0,STARLINK-5155,PAYLOAD,2023-09-18 19:35:06,15.08849307,0.0001358,53.2157,97.327,87.196,272.9188,0.00019286,2.784e-05,0.0,0 STARLINK-5155,1 54170U 22141P   23261.81605318  .00002784  00000-0  19286-3 0  9993,2 54170  53.2157  97.3270 0001358  87.1960 272.9188 15.08849307 49553,6917.852,95.437,540.656,538.777,0.0
54170.0,STARLINK-5155,PAYLOAD,2023-09-18 22:45:53,15.08850436,0.0001348,53.2153,96.7319,94.1309,265.9837,0.00020923,3.044e-05,0.0,0 STARLINK-5155,1 54170U 22141P   23261.94853211  .00003044  00000-0  20923-3 0  9994,2 54170  53.2153  96.7319 0001348  94.1309 265.9837 15.08850436 49569,6917.848,95.437,540.646,538.781,0.0
54170.0,STARLINK-5155,PAYLOAD,2023-09-19 19:25:54,15.08836971,0.0001428,53.2165,92.8679,77.5324,282.5828,4.5844e-05,4.42e-06,0.0,0 STARLINK-5155,1 54170U 22141P   23262.80965860  .00000442  00000-0  45844-4 0  9993,2 54170  53.2165  92.8679 0001428  77.5324 282.5828 15.08836971 49696,6917.89,95.438,540.743,538.767,0.0
54170.0,STARLINK-5155,PAYLOAD,2023-09-19 22:36:40,15.0883711,0.000142,53.2163,92.2728,77.437,282.6781,4.1496e-05,3.72e-06,0.0,0 STARLINK-5155,1 54170U 22141P   23262.94213870  .00000372  00000-0  41496-4 0  9996,2 54170  53.2163  92.2728 0001420  77.4370 282.6781 15.08837110 49724,6917.889,95.438,540.737,538.772,0.0
54170.0,STARLINK-5155,PAYLOAD,2023-09-20 20:52:04,15.08840203,0.00014,53.2173,88.1084,81.5305,278.5845,-4.6919e-07,-2.95e-06,0.0,0 STARLINK-5155,1 54170U 22141P   23263.86950049 -.00000295  00000-0 -46919-6 0  9997,2 54170  53.2173  88.1084 0001400  81.5305 278.5845 15.08840203 49863,6917.88,95.438,540.713,538.776,0.0
54170.0,STARLINK-5155,PAYLOAD,2023-09-21 12:45:56,15.08832469,0.0001439,53.217,85.1346,76.421,283.6942,0.00012424,1.689e-05,0.0,0 STARLINK-5155,1 54170U 22141P   23264.53190235  .00001689  00000-0  12424-3 0  9992,2 54170  53.2170  85.1346 0001439  76.4210 283.6942 15.08832469 49969,6917.903,95.438,540.764,538.773,0.0
54170.0,STARLINK-5155,PAYLOAD,2023-09-21 19:07:28,15.08845139,0.0001376,53.2169,83.9461,75.2852,284.8292,0.00010301,1.352e-05,0.0,0 STARLINK-5155,1 54170U 22141P   23264.79685635  .00001352  00000-0  10301-3 0  9992,2 54170  53.2169  83.9461 0001376  75.2852 284.8292 15.08845139 50006,6917.865,95.437,540.682,538.778,0.0
54170.0,STARLINK-5155,PAYLOAD,2023-09-22 11:01:20,15.08817988,0.0001258,53.217,80.973,84.4352,275.6784,0.00045884,7.018e-05,0.0,0 STARLINK-5155,1 54170U 22141P   23265.45927050  .00007018  00000-0  45884-3 0  9995,2 54170  53.2170  80.9730 0001258  84.4352 275.6784 15.08817988 50094,6917.948,95.439,540.683,538.942,0.0
54170.0,STARLINK-5155,PAYLOAD,2023-09-22 12:36:43,15.08839625,0.0001366,53.2171,80.6755,79.9862,280.1285,8.3709e-05,1.045e-05,0.0,0 STARLINK-5155,1 54170U 22141P   23265.52550266  .00001045  00000-0  83709-4 0  9997,2 54170  53.2171  80.6755 0001366  79.9862 280.1285 15.08839625 50116,6917.882,95.438,540.692,538.802,0.0
54170.0,STARLINK-5155,PAYLOAD,2023-09-22 18:58:15,15.08844322,0.0001321,53.2176,79.4866,84.4764,275.6379,0.00011693,1.574e-05,0.0,0 STARLINK-5155,1 54170U 22141P   23265.79045856  .00001574  00000-0  11693-3 0  9999,2 54170  53.2176  79.4866 0001321  84.4764 275.6379 15.08844322 50149,6917.867,95.437,540.646,538.818,0.0
54170.0,STARLINK-5155,PAYLOAD,2023-09-22 20:33:38,15.08846536,0.0001344,53.2179,79.189,82.9309,277.1836,0.00013428,1.85e-05,0.0,0 STARLINK-5155,1 54170U 22141P   23265.85669680  .00001850  00000-0  13428-3 0  9998,2 54170  53.2179  79.1890 0001344  82.9309 277.1836 15.08846536 50165,6917.86,95.437,540.655,538.796,0.0
54170.0,STARLINK-5155,PAYLOAD,2023-09-23 04:30:34,15.08841771,0.000129,53.2171,77.7018,84.5286,275.5853,8.3104e-05,1.035e-05,0.0,0 STARLINK-5155,1 54170U 22141P   23266.18790037  .00001035  00000-0  83104-4 0  9990,2 54170  53.2171  77.7018 0001290  84.5286 275.5853 15.08841771 50218,6917.875,95.437,540.632,538.848,0.0
